ordinal{string},comment{string},originator{string},norad_cat_id{string},object_name{string},object_type{string},classification_type{string},intldes{string},epoch{timestamp},epoch_microseconds{integer},mean_motion{decimal},eccentricity{decimal},inclination{decimal},ra_of_asc_node{decimal},arg_of_pericenter{decimal},mean_anomaly{decimal},ephemeris_type{string},element_set_no{string},rev_at_epoch{integer},bstar{decimal},mean_motion_dot{decimal},mean_motion_ddot{string},file{string},tle_line0{string},tle_line1{string},tle_line2{string},object_id{string},object_number{string},semimajor_axis{decimal},period{decimal},apogee{decimal},perigee{decimal}
1,GENERATED VIA SPACETRACK.ORG API,JSPOC,36792,ECHOSTAR 15,PAYLOAD,U,10034A,2019-02-22T10:25:27Z,842592,1.00272899000000004,0.000214899999999999992,0.0536000000000000018,292.20150000000001,28.0094999999999992,286.502099999999984,0,999,3160,0,-3.04000000000000012e-06,0,2414407,0 ECHOSTAR 15,1 36792U 10034A   19053.43435003 -.00000304  00000-0  00000+0 0  9992,2 36792   0.0536 292.2015 0002149  28.0095 286.5021  1.00272899 31606,2010-034A,36792,42164.4190000000017,1436.07999999999993,35795.3450000000012,35777.2229999999981
1,GENERATED VIA SPACETRACK.ORG API,JSPOC,15077,COSMOS 1577,PAYLOAD,U,84067A,2019-02-22T10:25:43Z,354848,13.7542015499999994,0.00343649999999999988,82.958200000000005,23.178799999999999,258.407199999999989,213.778500000000008,0,999,48642,7.10100000000000028e-06,2.20000000000000011e-07,0,2414510,0 COSMOS 1577,1 15077U 84067A   19053.43452957  .00000022  00000-0  71010-5 0  9990,2 15077  82.9582  23.1788 0034365 258.4072 213.7785 13.75420155486424,1984-067A,15077,7358.3119999999999,104.694999999999993,1005.46400000000006,954.890999999999963
1,GENERATED VIA SPACETRACK.ORG API,JSPOC,13916,COSMOS 1447,PAYLOAD,U,83021A,2019-02-22T10:25:45Z,649632,13.7507754000000002,0.00390619999999999986,82.9479999999999933,178.446899999999999,87.4813999999999936,334.408799999999985,0,999,80212,2.26889999999999991e-05,3.70000000000000004e-07,0,2414468,0 COSMOS 1447,1 13916U 83021A   19053.43455613  .00000037  00000-0  22689-4 0  9994,2 13916  82.9480 178.4469 0039062  87.4814 334.4088 13.75077540802126,1983-021A,13916,7359.53499999999985,104.721000000000004,1010.14700000000005,952.652000000000044
1,GENERATED VIA SPACETRACK.ORG API,JSPOC,23751,IRS 1C,PAYLOAD,U,95072A,2019-02-22T10:25:46Z,917120,14.2258793000000008,0.000126599999999999987,98.7593999999999994,359.854100000000017,89.3876000000000062,270.744700000000023,0,999,20186,2.01629999999999999e-05,1.00000000000000002e-08,0,2414435,0 IRS 1C,1 23751U 95072A   19053.43457080  .00000001  00000-0  20163-4 0  9997,2 23751  98.7594 359.8541 0001266  89.3876 270.7447 14.22587930201862,1995-072A,23751,7194.75,101.222999999999999,817.525999999999954,815.705000000000041
1,GENERATED VIA SPACETRACK.ORG API,JSPOC,40071,DX 1,PAYLOAD,U,14037C,2019-02-22T10:25:48Z,503424,14.8123543099999999,0.000721599999999999976,98.4055000000000035,201.507800000000003,233.732200000000006,126.323300000000003,0,999,25004,1.56240000000000015e-05,6.30000000000000003e-07,0,2414472,0 DX 1,1 40071U 14037C   19053.43458916  .00000063  00000-0  15624-4 0  9996,2 40071  98.4055 201.5078 0007216 233.7322 126.3233 14.81235431250049,2014-037C,40071,7003.56400000000031,97.215999999999994,630.481999999999971,620.375
1,GENERATED VIA SPACETRACK.ORG API,JSPOC,29709,LAPAN-TUBSAT,PAYLOAD,U,07001A,2019-02-22T10:25:56Z,515296,14.8216199500000005,0.0011467999999999999,97.7908999999999935,18.6118999999999986,239.344099999999997,120.663899999999998,0,999,65511,7.36860000000000006e-06,7.00000000000000048e-08,0,2414469,0 LAPAN-TUBSAT,1 29709U 07001A   19053.43468189  .00000007  00000-0  73686-5 0  9998,2 29709  97.7909  18.6119 0011468 239.3441 120.6639 14.82161995655113,2007-001A,29709,7000.64500000000044,97.1550000000000011,630.538000000000011,614.480999999999995
1,GENERATED VIA SPACETRACK.ORG API,JSPOC,38999,XINYAN 1 (XY-1),PAYLOAD,U,12064C,2019-02-22T10:26:55Z,999968,15.7883911300000008,0.000324300000000000022,97.197100000000006,119.262299999999996,131.156700000000001,52.3603000000000023,0,999,35360,0.00015480999999999999,0.000270730000000000005,0,2414436,0 XINYAN 1 (XY-1),1 38999U 12064C   19053.43537037  .00027073  00000-0  15481-3 0  9992,2 38999  97.1971 119.2623 0003243 131.1567  52.3603 15.78839113353606,2012-064C,38999,6711.86499999999978,91.2060000000000031,335.906999999999982,331.553999999999974
1,GENERATED VIA SPACETRACK.ORG API,JSPOC,35683,DMC 2,PAYLOAD,U,09041C,2019-02-22T10:27:07Z,473888,14.7106495800000001,0.000159900000000000011,97.7523999999999944,275.725900000000024,101.8904,258.248299999999972,0,999,51345,-6.99719999999999968e-06,-8.89999999999999949e-07,0,2414453,0 DMC 2,1 35683U 09041C   19053.43550317 -.00000089  00000-0 -69972-5 0  9992,2 35683  97.7524 275.7259 0001599 101.8904 258.2483 14.71064958513450,2009-041C,35683,7035.80699999999979,97.8880000000000052,658.797000000000025,656.547000000000025
1,GENERATED VIA SPACETRACK.ORG API,JSPOC,40874,INTELSAT 34,PAYLOAD,U,15039A,2019-02-22T10:27:13Z,363776,1.00274521000000005,3.18000000000000005e-05,0.0183999999999999997,118.089100000000002,149.244400000000013,345.975300000000004,0,999,1287,0,-3.08000000000000016e-06,0,2414438,0 INTELSAT 34,1 40874U 15039A   19053.43557134 -.00000308  00000-0  00000+0 0  9992,2 40874   0.0184 118.0891 0000318 149.2444 345.9753  1.00274521 12872,2015-039A,40874,42163.9639999999999,1436.05700000000002,35787.1699999999983,35784.4890000000014
1,GENERATED VIA SPACETRACK.ORG API,JSPOC,39769,RISING 2,PAYLOAD,U,14029D,2019-02-22T10:27:17Z,59104,14.8204395499999997,0.000595500000000000001,97.8521999999999963,146.70259999999999,75.745199999999997,284.442200000000014,0,999,25694,1.19909999999999992e-05,4.30000000000000012e-07,0,2414456,0 RISING 2,1 39769U 14029D   19053.43561411  .00000043  00000-0  11991-4 0  9995,2 39769  97.8522 146.7026 0005955  75.7452 284.4422 14.82043955256942,2014-029D,39769,7001.01599999999962,97.1629999999999967,627.049999999999955,618.711999999999989
1,GENERATED VIA SPACETRACK.ORG API,JSPOC,40878,YAOGAN 27,PAYLOAD,U,15040A,2019-02-22T10:27:26Z,81856,13.1596124999999997,0.000787900000000000015,100.306200000000004,110.872600000000006,242.966700000000003,117.064599999999999,0,999,16774,0,-4.40000000000000022e-07,0,2414405,0 YAOGAN 27,1 40878U 15040A   19053.43571854 -.00000044  00000-0  00000+0 0  9990,2 40878 100.3062 110.8726 0007879 242.9667 117.0646 13.15961250167746,2015-040A,40878,7578.32200000000012,109.424999999999997,1206.1579999999999,1194.21599999999989
1,GENERATED VIA SPACETRACK.ORG API,JSPOC,38833,NAVSTAR 67 (USA 239),PAYLOAD,U,12053A,2019-02-22T10:27:29Z,318400,2.00556828999999981,0.00807030000000000074,53.8233999999999995,253.167000000000002,32.8008000000000024,327.711299999999994,0,999,4674,0,2.10000000000000001e-07,0,2414531,0 NAVSTAR 67 (USA 239),1 38833U 12053A   19053.43575600  .00000021  00000-0  00000+0 0  9996,2 38833  53.8234 253.1670 0080703  32.8008 327.7113  2.00556829 46747,2012-053A,38833,26560.9449999999997,718,20397.1650000000009,19968.4559999999983
1,GENERATED VIA SPACETRACK.ORG API,JSPOC,25153,INMARSAT 3-F5,PAYLOAD,U,98006B,2019-02-22T10:27:35Z,976384,1.0026899600000001,0.000451999999999999982,3.81210000000000004,72.4030999999999949,270.62560000000002,271.878399999999999,0,999,7709,0,-3.09999999999999997e-06,0,2414544,0 INMARSAT 3-F5,1 25153U 98006B   19053.43583306 -.00000310  00000-0  00000+0 0  9993,2 25153   3.8121  72.4031 0004520 270.6256 271.8784  1.00268996 77090,1998-006B,25153,42165.512999999999,1436.13599999999997,35806.4369999999981,35768.3199999999997
1,GENERATED VIA SPACETRACK.ORG API,JSPOC,43938,ALE-1,PAYLOAD,U,19003G,2019-02-22T10:27:46Z,904256,15.2324489399999994,0.00271369999999999988,97.2995999999999981,114.757499999999993,122.137600000000006,334.105599999999981,0,999,538,1.56539999999999995e-05,3.04000000000000012e-06,0,2414513,0 ALE-1,1 43938U 19003G   19053.43595954  .00000304  00000-0  15654-4 0  9994,2 43938  97.2996 114.7575 0027137 122.1376 334.1056 15.23244894  5383,2019-003G,43938,6874.19700000000012,94.5349999999999966,514.716999999999985,477.408000000000015
1,GENERATED VIA SPACETRACK.ORG API,JSPOC,40137,CHUANG XIN 1-04,PAYLOAD,U,14051B,2019-02-22T10:27:50Z,960736,14.2959622900000003,0.00238920000000000018,98.4963999999999942,47.0289000000000001,98.2804000000000002,262.109100000000012,0,999,23323,1.74959999999999999e-05,2.00000000000000004e-08,0,2414515,0 CHUANG XIN 1-04,1 40137U 14051B   19053.43600649  .00000002  00000-0  17496-4 0  9999,2 40137  98.4964  47.0289 0023892  98.2804 262.1091 14.29596229233235,2014-051B,40137,7171.21699999999964,100.727000000000004,810.216000000000008,775.948999999999955
1,GENERATED VIA SPACETRACK.ORG API,JSPOC,40901,ZDPS 2A,PAYLOAD,U,15049C,2019-02-22T10:28:39Z,330912,15.1751245699999995,0.00119460000000000009,97.4598000000000013,60.9540000000000006,245.121800000000007,221.059100000000001,0,999,18960,3.0012e-05,5.3499999999999996e-06,0,2414401,0 ZDPS 2A,1 40901U 15049C   19053.43656633  .00000535  00000-0  30012-4 0  9990,2 40901  97.4598  60.9540 0011946 245.1218 221.0591 15.17512457189608,2015-049C,40901,6891.49799999999959,94.8919999999999959,521.596000000000004,505.129999999999995
1,GENERATED VIA SPACETRACK.ORG API,JSPOC,35867,FREGAT/IRIS,PAYLOAD,U,09049C,2019-02-22T10:28:42Z,845664,15.6895019799999993,0.000527099999999999964,96.9872000000000014,86.4198999999999984,56.7911000000000001,50.1580000000000013,0,999,53041,7.51100000000000042e-05,8.51999999999999974e-05,0,2414460,0 FREGAT/IRIS,1 35867U 09049C   19053.43660701  .00008520  00000-0  75110-4 0  9999,2 35867  96.9872  86.4199 0005271  56.7911  50.1580 15.68950198530417,2009-049C,35867,6740.03799999999956,91.7810000000000059,365.456000000000017,358.350999999999999
